id,cust_id,address_line1,city,state,region_id,zip
1,1,56 Hayes Street,Mumbai,Maharashtra,1,12345
2,2,3 Hauk Pass,Delhi,Delhi,1,12346
3,3,6 Cascade Court,Bangalore ,Karnataka,1,12347
4,4,56 Memorial Crossing,Hyderabad,Telangana,1,12348
5,5,51793 Bashford Terrace,Ahmedabad,Gujarat,1,12349
6,6,53764 Village Park,Chennai,Tamil Nadu,1,12350
7,7,461 Claremont Plaza,Kolkata,West Bengal,1,12351
8,8,44 Riverside Plaza,Surat,Gujarat,1,12352
9,9,3 Boyd Road,Pune,Maharashtra,1,12353
10,10,772 Nancy Crossing,Jaipur,Rajasthan,1,12354
11,11,278 Golf View Place,Lucknow,Uttar Pradesh,1,12355
12,12,5416 Schmedeman Parkway,Kanpur,Uttar Pradesh,1,12356
13,13,985 Everett Crossing,Nagpur,Maharashtra,1,12357
14,14,86456 New Castle Pass,Indore,Madhya Pradesh,1,12358
15,15,847 Forster Drive,Thane,Maharashtra,1,12359
16,16,44 Sundown Junction,Bhopal,Madhya Pradesh,1,12360
17,17,01 Cardinal Road,Visakhapatnam,Andhra Pradesh,1,12361
18,18,2787 6th Crossing,Pimpri-Chinchwad,Maharashtra,1,12362
19,19,2 Helena Place,Patna,Bihar,1,12363
20,20,18381 Veith Center,Vadodara,Gujarat,1,12364
21,21,54913 Northview Point,New York,New York,2,12365
22,22,66941 Roth Street,Los Angeles,California,2,12366
23,23,72536 Columbus Pass,Chicago,Illinois,2,12367
24,24,1 East Plaza,Houston,Texas,2,12368
25,25,4741 Aberg Park,Phoenix,Arizona,2,12369
26,26,6735 Elmside Parkway,Philadelphia,Pennsylvania,2,12370
27,27,312 Lawn Circle,San Antonio,Texas,2,12371
28,28,5963 Nobel Junction,San Diego,California,2,12372
29,29,79 Arrowood Trail,Dallas,Texas,2,12373
30,30,906 Ludington Lane,San Jose,California,2,12374
31,31,5 Novick Place,Austin,Texas,2,12375
32,32,01 Ohio Trail,Jacksonville,Florida,2,12376
33,33,72322 Merchant Pass,Fort Worth,Texas,2,12377
34,34,22749 Nova Alley,Columbus,Ohio,2,12378
35,35,578 Petterle Trail,San Francisco,California,2,12379
36,36,102 Spohn Lane,Charlotte,North Carolina,2,12380
37,37,6 Vermont Parkway,Indianapolis,Indiana,2,12381
38,38,052 Steensland Plaza,Toronto,Ontario,3,12382
39,39,28400 Menomonie Drive,Montreal,Quebec,3,12383
40,40,98 Oxford Court,Calgary,Alberta,3,12384
41,41,068 Goodland Place,Ottawa,Ontario,3,12385
42,42,860 Loeprich Avenue,Edmonton,Alberta,3,12386
43,43,141 Shelley Trail,Mississauga,Ontario,3,12387
44,44,25 Nelson Alley,Winnipeg,Manitoba,3,12388
45,45,5740 Washington Park,Vancouver,British Columbia,3,12389
46,46,4225 Delaware Center,Brampton,Ontario,3,12390
47,47,74259 Wayridge Court,Hamilton,Ontario,3,12391
48,48,62894 Bashford Park,Quebec City,Quebec,3,12392
49,49,79649 Mallard Hill,Surrey,British Columbia,3,12393
50,50,08335 Tomscot Lane,Laval,Quebec,3,12394
51,51,524 Boyd Junction,Halifax,Nova Scotia,3,12395
52,52,9 Huxley Lane,London,Ontario,3,12396
53,53,1 Elgar Crossing,Markham,Ontario,3,12397
54,54,00197 Mesta Street,Vaughan,Ontario,3,12398
55,55,710 Chive Terrace,Gatineau,Quebec,3,12399
56,56,17 Macpherson Way,Saskatoon,Saskatchewan,3,12400
57,57,63 Corry Center,Longueuil,Quebec,3,12401
58,58,19 Nelson Center,Kitchener,Ontario,3,12402
59,59,5 Onsgard Drive,Burnaby,British Columbia,3,12403
60,60,25 Hovde Terrace,Windsor,Ontario,3,12404
61,61,84055 Longview Circle,Regina,Saskatchewan,3,12405
62,62,5364 Susan Trail,Richmond,British Columbia,3,12406
63,63,18300 Debs Junction,Richmond Hill,Ontario,3,12407
64,64,303 Eastlawn Alley,Oakville,Ontario,3,12408
65,65,59428 Mesta Street,Burlington,Ontario,3,12409
66,66,54903 Grasskamp Avenue,Greater Sudbury,Ontario,3,12410
67,67,4883 3rd Drive,Sherbrooke,Quebec,3,12411
68,68,4 Hanson Lane,Oshawa,Ontario,3,12412
69,69,2883 Parkside Plaza,Saguenay,Quebec,3,12413
70,70,75 Buhler Terrace,Lévis,Quebec,3,12414
71,71,5878 Dottie Avenue,Barrie,Ontario,3,12415
72,72,3163 Sutteridge Street,Abbotsford,British Columbia,3,12416
73,73,37 Vermont Park,Coquitlam,British Columbia,3,12417
74,74,34 Pearson Center,Trois-Rivières,Quebec,3,12418
75,75,38858 Kipling Center,St. Catharines,Ontario,3,12419
76,76,1 Melvin Crossing,Guelph,Ontario,3,12420
77,77,3033 Kennedy Alley,Cambridge,Ontario,3,12421
78,78,0925 Di Loreto Drive,São Paulo, São Paulo,4,12422
79,79,2605 Mcguire Point,Rio de Janeiro, Rio de Janeiro,4,12423
80,80,60 Golf Course Avenue,Brasília, Distrito Federal,4,12424
81,81,66954 Ronald Regan Way,Salvador, Bahia,4,12425
82,82,2654 Morningstar Park,Fortaleza, Ceará,4,12426
83,83,29415 Manufacturers Way,Belo Horizonte, Minas Gerais,4,12427
84,84,6 Hazelcrest Court,Manaus, Amazonas,4,12428
85,85,5 Grim Crossing,Curitiba, Paraná,4,12429
86,86,55 Summerview Terrace,Recife, Pernambuco,4,12430
87,87,82 Reindahl Trail,Goiânia, Goiás,4,12431
88,88,69 Almo Street,Belém, Pará,4,12432
89,89,744 Walton Street,Porto Alegre, Rio Grande do Sul,4,12433
90,90,805 Granby Way,Campinas, São Paulo,4,12434
91,91,78349 Mayer Lane,Guarulhos, São Paulo,4,12435
92,92,58414 Mallory Plaza,São Luís, Maranhão,4,12436
93,93,10 Jenifer Parkway,São Gonçalo, Rio de Janeiro,4,12437
94,94,4888 Jay Alley,Maceió, Alagoas,4,12438
95,95,7746 Bashford Circle,Duque de Caxias, Rio de Janeiro,4,12439
96,96,45 North Plaza,Campo Grande, Mato Grosso do Sul,4,12440
97,97,11 Hanover Trail,Natal, Rio Grande do Norte,4,12441
98,98,9 Farmco Place,Teresina, Piauí,4,12442
99,99,099 Northport Park,São Bernardo do Campo, São Paulo,4,12443
100,100,55 Hoard Alley,Nova Iguaçu, Rio de Janeiro,4,12444
101,101,9605 North Plaza,João Pessoa, Paraíba,4,12445
102,102,7141 Helena Drive,Santo André, São Paulo,4,12446
103,103,36246 Springs Park,São José dos Campos, São Paulo,4,12447
104,104,20 Miller Lane,Jaboatão dos Guararapes, Pernambuco,4,12448
105,105,1 Loeprich Place,Osasco, São Paulo,4,12449
106,106,529 Florence Street,Ribeirão Preto, São Paulo,4,12450
107,107,965 Waxwing Center,Uberlândia, Minas Gerais,4,12451
108,108,92 Oriole Alley,Sorocaba, São Paulo,4,12452
109,109,7902 Village Pass,Contagem, Minas Gerais,4,12453
110,110,02456 Tony Circle,Aracaju, Sergipe,4,12454
111,111,3 Miller Circle,Feira de Santana, Bahia,4,12455
112,112,5444 Ilene Street,Cuiabá, Mato Grosso,4,12456
113,113,84 Texas Street,Joinville, Santa Catarina,4,12457
114,114,873 Eagle Crest Street,Aparecida de Goiânia, Goiás,4,12458
115,115,06 Fisk Circle,Juiz de Fora, Minas Gerais,4,12459
116,116,41557 Logan Lane,Londrina, Paraná,4,12460
117,117,171 Dayton Court,Ananindeua, Pará,4,12461
118,118,56923 Westport Road,Porto Velho, Rondônia,4,12462
119,119,1 Caliangt Junction,Niterói, Rio de Janeiro,4,12463
120,120,12 Elka Plaza,Belford Roxo, Rio de Janeiro,4,12464
121,121,80 Forest Road,Serra, Espírito Santo,4,12465
122,122,57290 Parkside Parkway,Caxias do Sul, Rio Grande do Sul,4,12466
123,123,227 Harbort Junction,Campos dos Goytacazes, Rio de Janeiro,4,12467
124,124,976 Carpenter Parkway,Macapá, Amapá,4,12468
125,125,27870 Oakridge Crossing,Florianópolis, Santa Catarina,4,12469
126,126,0 Monica Center,Vila Velha, Espírito Santo,4,12470
127,127,99 Mifflin Way,São João de Meriti, Rio de Janeiro,4,12471
128,128,13695 Center Drive,Mauá, São Paulo,4,12472
129,129,10 Twin Pines Park,São José do Rio Preto, São Paulo,4,12473
130,130,6 Dovetail Pass,Mogi das Cruzes, São Paulo,4,12474
131,131,8330 Fallview Pass,Santos, São Paulo,4,12475
132,132,7090 Tennessee Trail,Betim, Minas Gerais,4,12476
133,133,002 Daystar Lane,Diadema, São Paulo,4,12477
134,134,6672 Carioca Alley,Maringá, Paraná,4,12478
135,135,0691 Memorial Circle,Jundiaí, São Paulo,4,12479
136,136,13 Golf Course Parkway,Campina Grande, Paraíba,4,12480
137,137,77 Barnett Place,Montes Claros, Minas Gerais,4,12481
138,138,9 Montana Road,Rio Branco, Acre,4,12482
139,139,09 Carey Hill,Piracicaba, São Paulo,4,12483
140,140,6 Westerfield Parkway,Carapicuíba, São Paulo,4,12484
141,141,707 Hagan Junction,Olinda, Pernambuco,4,12485
142,142,8804 Bayside Hill,Anápolis, Goiás,4,12486
143,143,88 Melvin Lane,Cariacica, Espírito Santo,4,12487
144,144,1444 Pennsylvania Circle,Boa Vista, Roraima,4,12488
145,145,1 Dennis Road,Bauru, São Paulo,4,12489
146,146,9295 Menomonie Way,Itaquaquecetuba, São Paulo,4,12490
147,147,2249 Pierstorff Hill,Caucaia, Ceará,4,12491
148,148,01 Comanche Parkway,São Vicente, São Paulo,4,12492
149,149,9 Forest Dale Park,Vitória, Espírito Santo,4,12493
150,150,4 Farmco Pass,Caruaru, Pernambuco,4,12494
151,151,8293 Londonderry Pass,Blumenau, Santa Catarina,4,12495
152,152,61726 Texas Road,Franca, São Paulo,4,12496
153,153,8778 Badeau Way,Ponta Grossa, Paraná,4,12497
154,154,06725 School Court,Canoas, Rio Grande do Sul,4,12498
155,155,07 Raven Parkway,Petrolina, Pernambuco,4,12499
156,156,2 Village Drive,Pelotas, Rio Grande do Sul,4,12500
157,157,2594 Bayside Junction,Vitória da Conquista, Bahia,4,12501
158,158,46329 6th Point,Ribeirão das Neves, Minas Gerais,4,12502
159,159,482 Marcy Hill,Uberaba, Minas Gerais,4,12503
160,160,64711 Prairieview Alley,Paulista, Pernambuco,4,12504
161,161,75657 Alpine Park,Cascavel, Paraná,4,12505
162,162,45 Lawn Place,Praia Grande, São Paulo,4,12506
163,163,81 Sunbrook Circle,Guarujá, São Paulo,4,12507
164,164,67870 Carioca Street,São José dos Pinhais, Paraná,4,12508
165,165,92041 Packers Parkway,Taubaté, São Paulo,4,12509
166,166,8376 Starling Center,Petrópolis, Rio de Janeiro,4,12510
167,167,4 Dennis Alley,Limeira, São Paulo,4,12511
168,168,92050 Service Junction,Santarém, Pará,4,12512
169,169,2503 Londonderry Parkway,Suzano, São Paulo,4,12513
170,170,0 Waubesa Way,Mossoró, Rio Grande do Norte,4,12514
171,171,70663 Fair Oaks Trail,Camaçari, Bahia,4,12515
172,172,72 Duke Junction,Palmas, Tocantins,4,12516
173,173,4318 Iowa Road,Taboão da Serra, São Paulo,4,12517
174,174,6980 Russell Hill,Várzea Grande, Mato Grosso,4,12518
175,175,00722 Almo Road,Santa Maria, Rio Grande do Sul,4,12519
176,176,75 Talmadge Hill,Gravataí, Rio Grande do Sul,4,12520
177,177,19781 Eagan Center,Governador Valadares, Minas Gerais,4,12521
178,178,7 Packers Park,Sumaré, São Paulo,4,12522
179,179,3525 La Follette Junction,Marabá, Pará,4,12523
180,180,6 Sloan Junction,Volta Redonda, Rio de Janeiro,4,12524
181,181,616 Westerfield Trail,Juazeiro do Norte, Ceará,4,12525
182,182,69542 Jenifer Parkway,Barueri, São Paulo,4,12526
183,183,5306 Fairfield Trail,Embu das Artes, São Paulo,4,12527
184,184,819 Leroy Pass,Ipatinga, Minas Gerais,4,12528
185,185,6 Grasskamp Terrace,Foz do Iguaçu, Paraná,4,12529
186,186,98560 Lighthouse Bay Center,Imperatriz, Maranhão,4,12530
187,187,91 Burning Wood Way,Parnamirim, Rio Grande do Norte,4,12531
188,188,3 Michigan Lane,Viamão, Rio Grande do Sul,4,12532
189,189,3 Mallory Point,Macaé, Rio de Janeiro,4,12533
190,190,55240 Meadow Vale Hill,São Carlos, São Paulo,4,12534
191,191,4 Northland Street,Indaiatuba, São Paulo,4,12535
192,192,74 4th Circle,Novo Hamburgo, Rio Grande do Sul,4,12536
193,193,4934 Packers Lane,Cotia, São Paulo,4,12537
194,194,3131 Walton Trail,Magé, Rio de Janeiro,4,12538
195,195,987 Jenifer Crossing,São José, Santa Catarina,4,12539
196,196,182 Spenser Park,Colombo, Paraná,4,12540
197,197,39708 Erie Point,Itaboraí, Rio de Janeiro,4,12541
198,198,79 Green Place,Sete Lagoas, Minas Gerais,4,12542
199,199,6 Parkside Pass,Marília, São Paulo,4,12543
200,200,4 Grim Trail,Americana, São Paulo,4,12544
201,201,691 Haas Way,Divinópolis, Minas Gerais,4,12545
202,202,37 Wayridge Avenue,São Leopoldo, Rio Grande do Sul,4,12546
203,203,4 Summerview Circle,Itapevi, São Paulo,4,12547
204,204,5634 Magdeline Avenue,Araraquara, São Paulo,4,12548
205,205,495 Toban Crossing,Jacareí, São Paulo,4,12549
206,206,7 Basil Junction,Dubai City,Dubai,5,12550
207,207,460 Bellgrove Pass,Abu Dhabi City,Abu Dhabi,5,12551
208,208,2932 Fieldstone Avenue,Sharjah City,Sharjah,5,12552
209,209,28 Golf Course Alley,Al Ain,Abu Dhabi,5,12553
210,210,2799 Carey Court,Ajman City,Ajman,5,12554
211,211,00 Waubesa Drive,Ras Al Khaimah,Ras Al Khaimah,5,12555
212,212,24619 Arrowood Plaza,Fujairah City,Fujairah,5,12556
213,213,71 Loeprich Court,Umm al-Quwain,Umm al-Quwain,5,12557
214,214,73 Dottie Hill,Khor Fakkan,Sharjah,5,12558
215,215,17294 Northfield Court,Kalba,Sharjah,5,12559
216,216,4248 Maryland Park,Jebel Ali,Dubai,5,12560
217,217,8919 4th Trail,Dibba Al-Fujairah,Fujairah,5,12561
218,218,913 Forest Park,Madinat Zayed,Abu Dhabi,5,12562
219,219,41931 Florence Avenue,Liwa Oasis,Abu Dhabi,5,12563
220,220,398 Truax Parkway,Dhaid,Sharjah,5,12564
221,221,9 Delladonna Center,Al Quoz,Dubai,5,12565
222,222,533 Rockefeller Pass,Ruwais,Abu Dhabi,5,12566
223,223,29044 Dexter Point,Ghayathi,Abu Dhabi,5,12567
224,224,57744 Londonderry Court,Ar-Rams,Ras Al Khaimah,5,12568
225,225,8934 Mariners Cove Lane,Dibba Al-Hisn,Sharjah,5,12569
226,226,64 Michigan Place,Hatta,Dubai,5,12570
227,227,162 Old Shore Way,Al Madam,Sharjah,5,12571
228,228,36674 Mariners Cove Place,Mumbai,Maharashtra,1,12572
229,229,209 Mcbride Pass,Delhi,Delhi,1,12573
230,230,5 Nelson Place,Bangalore ,Karnataka,1,12574
231,231,25538 Golf View Circle,Hyderabad,Telangana,1,12575
232,232,6509 Namekagon Avenue,Ahmedabad,Gujarat,1,12576
233,233,5 Twin Pines Way,Chennai,Tamil Nadu,1,12577
234,234,749 Old Shore Center,Kolkata,West Bengal,1,12578
235,235,5 Portage Street,Surat,Gujarat,1,12579
236,236,39048 Vidon Point,Pune,Maharashtra,1,12580
237,237,55 La Follette Avenue,Jaipur,Rajasthan,1,12581
238,238,29 Westport Road,Lucknow,Uttar Pradesh,1,12582
239,239,7 Stang Circle,Kanpur,Uttar Pradesh,1,12583
240,240,77 Bayside Alley,Nagpur,Maharashtra,1,12584
241,241,1 Reindahl Park,Indore,Madhya Pradesh,1,12585
242,242,972 Petterle Terrace,Thane,Maharashtra,1,12586
243,243,17 Pepper Wood Plaza,Bhopal,Madhya Pradesh,1,12587
244,244,0059 Susan Park,Visakhapatnam,Andhra Pradesh,1,12588
245,245,805 Forest Dale Park,Pimpri-Chinchwad,Maharashtra,1,12589
246,246,4 Fuller Drive,Patna,Bihar,1,12590
247,247,780 Buhler Plaza,Vadodara,Gujarat,1,12591
248,248,89 Dovetail Center,New York,New York,2,12592
249,249,2574 Dwight Lane,Los Angeles,California,2,12593
250,250,28319 Del Sol Pass,Chicago,Illinois,2,12594
251,251,93 4th Street,Houston,Texas,2,12595
252,252,6 Leroy Avenue,Phoenix,Arizona,2,12596
253,253,51057 Eagan Road,Philadelphia,Pennsylvania,2,12597
254,254,4 Bayside Way,San Antonio,Texas,2,12598
255,255,0860 Grim Junction,San Diego,California,2,12599
256,256,10221 Bartillon Trail,Dallas,Texas,2,12600
257,257,15518 Boyd Place,San Jose,California,2,12601
258,258,84507 Sunbrook Junction,Austin,Texas,2,12602
259,259,7 Mallory Pass,Jacksonville,Florida,2,12603
260,260,0922 Monica Plaza,Fort Worth,Texas,2,12604
261,261,53 Lake View Plaza,Columbus,Ohio,2,12605
262,262,63563 2nd Terrace,San Francisco,California,2,12606
263,263,04729 Bay Lane,Charlotte,North Carolina,2,12607
264,264,3 Maywood Drive,Indianapolis,Indiana,2,12608
265,265,327 Fuller Point,Toronto,Ontario,3,12609
266,266,5 Rowland Drive,Montreal,Quebec,3,12610
267,267,709 Di Loreto Drive,Calgary,Alberta,3,12611
268,268,55 Spohn Trail,Ottawa,Ontario,3,12612
269,269,89263 Delaware Parkway,Edmonton,Alberta,3,12613
270,270,1 Hudson Junction,Mississauga,Ontario,3,12614
271,271,61 Moose Way,Winnipeg,Manitoba,3,12615
272,272,94802 Tony Point,Vancouver,British Columbia,3,12616
273,273,24655 South Circle,Brampton,Ontario,3,12617
274,274,11207 Gale Street,Hamilton,Ontario,3,12618
275,275,2 Scofield Drive,Quebec City,Quebec,3,12619
276,276,105 Ruskin Crossing,Surrey,British Columbia,3,12620
277,277,9 Kensington Circle,Laval,Quebec,3,12621
278,278,213 Bowman Alley,Halifax,Nova Scotia,3,12622
279,279,3114 Buena Vista Terrace,London,Ontario,3,12623
280,280,3 Dapin Circle,Markham,Ontario,3,12624
281,281,830 Melody Plaza,Vaughan,Ontario,3,12625
282,282,18 Westend Plaza,Gatineau,Quebec,3,12626
283,283,314 Arizona Trail,Saskatoon,Saskatchewan,3,12627
284,284,66571 Randy Circle,Longueuil,Quebec,3,12628
285,285,831 Dahle Point,Kitchener,Ontario,3,12629
286,286,5962 Troy Point,Burnaby,British Columbia,3,12630
287,287,645 Roth Terrace,Windsor,Ontario,3,12631
288,288,3262 Summit Circle,Regina,Saskatchewan,3,12632
289,289,6893 Bluejay Park,Richmond,British Columbia,3,12633
290,290,14956 Mifflin Lane,Richmond Hill,Ontario,3,12634
291,291,72 Pepper Wood Avenue,Oakville,Ontario,3,12635
292,292,56530 Dayton Avenue,Burlington,Ontario,3,12636
293,293,64 Nevada Place,Greater Sudbury,Ontario,3,12637
294,294,9992 Dovetail Road,Sherbrooke,Quebec,3,12638
295,295,6112 Caliangt Avenue,Oshawa,Ontario,3,12639
296,296,51 Prairie Rose Park,Saguenay,Quebec,3,12640
297,297,9 Jay Street,Lévis,Quebec,3,12641
298,298,91104 Moland Crossing,Barrie,Ontario,3,12642
299,299,8 Talisman Pass,Abbotsford,British Columbia,3,12643
300,300,0 4th Avenue,Coquitlam,British Columbia,3,12644
301,301,50 Sycamore Lane,Trois-Rivières,Quebec,3,12645
302,302,9 Becker Road,St. Catharines,Ontario,3,12646
303,303,00 Granby Pass,Guelph,Ontario,3,12647
304,304,3 Green Ridge Court,Cambridge,Ontario,3,12648
305,305,01 Anderson Alley,São Paulo, São Paulo,4,12649
306,306,674 Waubesa Drive,Rio de Janeiro, Rio de Janeiro,4,12650
307,307,33 Onsgard Park,Brasília, Distrito Federal,4,12651
308,308,9 Sutherland Place,Salvador, Bahia,4,12652
309,309,2 Vermont Circle,Fortaleza, Ceará,4,12653
310,310,911 Basil Avenue,Belo Horizonte, Minas Gerais,4,12654
311,311,82 Johnson Street,Manaus, Amazonas,4,12655
312,312,65519 Manitowish Road,Curitiba, Paraná,4,12656
313,313,22 Sugar Place,Recife, Pernambuco,4,12657
314,314,99250 Bowman Pass,Goiânia, Goiás,4,12658
315,315,55249 Moland Park,Belém, Pará,4,12659
316,316,3 David Park,Porto Alegre, Rio Grande do Sul,4,12660
317,317,94020 Morrow Court,Campinas, São Paulo,4,12661
318,318,86557 Moland Hill,Guarulhos, São Paulo,4,12662
319,319,739 Kingsford Point,São Luís, Maranhão,4,12663
320,320,594 Harbort Avenue,São Gonçalo, Rio de Janeiro,4,12664
321,321,25084 Crownhardt Pass,Maceió, Alagoas,4,12665
322,322,4 Di Loreto Park,Duque de Caxias, Rio de Janeiro,4,12666
323,323,72 Hintze Street,Campo Grande, Mato Grosso do Sul,4,12667
324,324,6 Anhalt Way,Natal, Rio Grande do Norte,4,12668
325,325,358 Lillian Terrace,Teresina, Piauí,4,12669
326,326,704 Shasta Lane,São Bernardo do Campo, São Paulo,4,12670
327,327,40178 Esch Plaza,Nova Iguaçu, Rio de Janeiro,4,12671
328,328,5027 Comanche Pass,João Pessoa, Paraíba,4,12672
329,329,7556 Morrow Parkway,Santo André, São Paulo,4,12673
330,330,9 Bashford Crossing,São José dos Campos, São Paulo,4,12674
331,331,52470 Ridgeview Junction,Jaboatão dos Guararapes, Pernambuco,4,12675
332,332,44180 Warbler Pass,Osasco, São Paulo,4,12676
333,333,7 Butternut Point,Ribeirão Preto, São Paulo,4,12677
334,334,157 Schmedeman Circle,Uberlândia, Minas Gerais,4,12678
335,335,2856 Granby Lane,Sorocaba, São Paulo,4,12679
336,336,7 Moland Way,Contagem, Minas Gerais,4,12680
337,337,34256 Waywood Point,Aracaju, Sergipe,4,12681
338,338,2 Helena Plaza,Feira de Santana, Bahia,4,12682
339,339,4 Bay Terrace,Cuiabá, Mato Grosso,4,12683
340,340,80469 Emmet Circle,Joinville, Santa Catarina,4,12684
341,341,2 Fordem Road,Aparecida de Goiânia, Goiás,4,12685
342,342,03537 Barby Drive,Juiz de Fora, Minas Gerais,4,12686
343,343,474 6th Center,Londrina, Paraná,4,12687
344,344,5171 Autumn Leaf Park,Ananindeua, Pará,4,12688
345,345,2938 Pankratz Circle,Porto Velho, Rondônia,4,12689
346,346,1334 Arrowood Parkway,Niterói, Rio de Janeiro,4,12690
347,347,38 Iowa Trail,Belford Roxo, Rio de Janeiro,4,12691
348,348,481 Canary Lane,Serra, Espírito Santo,4,12692
349,349,6224 Kennedy Lane,Caxias do Sul, Rio Grande do Sul,4,12693
350,350,23 Gale Avenue,Campos dos Goytacazes, Rio de Janeiro,4,12694
351,351,98 Jana Avenue,Macapá, Amapá,4,12695
352,352,01 Saint Paul Circle,Florianópolis, Santa Catarina,4,12696
353,353,558 Crownhardt Trail,Vila Velha, Espírito Santo,4,12697
354,354,936 Lukken Park,São João de Meriti, Rio de Janeiro,4,12698
355,355,18 Raven Trail,Mauá, São Paulo,4,12699
356,356,65455 Declaration Lane,São José do Rio Preto, São Paulo,4,12700
357,357,95739 Vera Pass,Mogi das Cruzes, São Paulo,4,12701
358,358,28758 Little Fleur Junction,Santos, São Paulo,4,12702
359,359,7 Bay Center,Betim, Minas Gerais,4,12703
360,360,866 Grasskamp Alley,Diadema, São Paulo,4,12704
361,361,968 Eagan Pass,Maringá, Paraná,4,12705
362,362,5995 Northfield Avenue,Jundiaí, São Paulo,4,12706
363,363,3 Briar Crest Point,Campina Grande, Paraíba,4,12707
364,364,57519 Ohio Terrace,Montes Claros, Minas Gerais,4,12708
365,365,9 Clove Court,Rio Branco, Acre,4,12709
366,366,1709 Valley Edge Street,Piracicaba, São Paulo,4,12710
367,367,5576 Charing Cross Alley,Carapicuíba, São Paulo,4,12711
368,368,3391 Vera Drive,Olinda, Pernambuco,4,12712
369,369,5 Schlimgen Pass,Anápolis, Goiás,4,12713
370,370,355 Basil Lane,Cariacica, Espírito Santo,4,12714
371,371,02 Northwestern Parkway,Boa Vista, Roraima,4,12715
372,372,665 Barby Crossing,Bauru, São Paulo,4,12716
373,373,3802 Goodland Alley,Itaquaquecetuba, São Paulo,4,12717
374,374,31565 Meadow Valley Terrace,Caucaia, Ceará,4,12718
375,375,7006 Vidon Crossing,São Vicente, São Paulo,4,12719
376,376,6 Ruskin Alley,Vitória, Espírito Santo,4,12720
377,377,6 Mandrake Lane,Caruaru, Pernambuco,4,12721
378,378,18155 Waubesa Alley,Blumenau, Santa Catarina,4,12722
379,379,8 Larry Circle,Franca, São Paulo,4,12723
380,380,39082 American Parkway,Ponta Grossa, Paraná,4,12724
381,381,1868 Raven Trail,Canoas, Rio Grande do Sul,4,12725
382,382,22382 Grayhawk Terrace,Petrolina, Pernambuco,4,12726
383,383,4592 Lighthouse Bay Circle,Pelotas, Rio Grande do Sul,4,12727
384,384,4228 Leroy Way,Vitória da Conquista, Bahia,4,12728
385,385,67523 Charing Cross Way,Ribeirão das Neves, Minas Gerais,4,12729
386,386,290 New Castle Parkway,Uberaba, Minas Gerais,4,12730
387,387,646 Grim Avenue,Paulista, Pernambuco,4,12731
388,388,1 American Ash Plaza,Cascavel, Paraná,4,12732
389,389,45 Colorado Parkway,Praia Grande, São Paulo,4,12733
390,390,9066 Graceland Junction,Guarujá, São Paulo,4,12734
391,391,2449 Granby Alley,São José dos Pinhais, Paraná,4,12735
392,392,50 Dawn Street,Taubaté, São Paulo,4,12736
393,393,1980 Truax Center,Petrópolis, Rio de Janeiro,4,12737
394,394,565 Sutherland Parkway,Limeira, São Paulo,4,12738
395,395,4574 Division Parkway,Santarém, Pará,4,12739
396,396,67625 Meadow Ridge Junction,Suzano, São Paulo,4,12740
397,397,315 Johnson Way,Mossoró, Rio Grande do Norte,4,12741
398,398,829 Sachtjen Crossing,Camaçari, Bahia,4,12742
399,399,76 Springs Alley,Palmas, Tocantins,4,12743
400,400,52 Pawling Circle,Taboão da Serra, São Paulo,4,12744
401,401,66230 Amoth Road,Várzea Grande, Mato Grosso,4,12745
402,402,55636 Clyde Gallagher Pass,Santa Maria, Rio Grande do Sul,4,12746
403,403,8 Debra Place,Gravataí, Rio Grande do Sul,4,12747
404,404,351 Dennis Point,Governador Valadares, Minas Gerais,4,12748
405,405,4063 Crownhardt Parkway,Sumaré, São Paulo,4,12749
406,406,731 Northland Drive,Marabá, Pará,4,12750
407,407,51 Anzinger Alley,Volta Redonda, Rio de Janeiro,4,12751
408,408,3480 Tony Pass,Juazeiro do Norte, Ceará,4,12752
409,409,4110 Fairfield Place,Barueri, São Paulo,4,12753
410,410,654 Kings Trail,Embu das Artes, São Paulo,4,12754
411,411,06 Melvin Road,Ipatinga, Minas Gerais,4,12755
412,412,5627 Sundown Center,Foz do Iguaçu, Paraná,4,12756
413,413,49035 Northridge Lane,Imperatriz, Maranhão,4,12757
414,414,9 Fallview Lane,Parnamirim, Rio Grande do Norte,4,12758
415,415,169 Westerfield Street,Viamão, Rio Grande do Sul,4,12759
416,416,1644 Basil Crossing,Macaé, Rio de Janeiro,4,12760
417,417,9238 Northwestern Circle,São Carlos, São Paulo,4,12761
418,418,10 Burrows Street,Indaiatuba, São Paulo,4,12762
419,419,1125 Maple Plaza,Novo Hamburgo, Rio Grande do Sul,4,12763
420,420,42 Gerald Alley,Cotia, São Paulo,4,12764
421,421,75 Village Parkway,Magé, Rio de Janeiro,4,12765
422,422,0 Michigan Circle,São José, Santa Catarina,4,12766
423,423,009 2nd Street,Colombo, Paraná,4,12767
424,424,93810 Derek Alley,Itaboraí, Rio de Janeiro,4,12768
425,425,0 Sugar Pass,Sete Lagoas, Minas Gerais,4,12769
426,426,4 Mosinee Drive,Marília, São Paulo,4,12770
427,427,36 Caliangt Place,Americana, São Paulo,4,12771
428,428,6 Service Street,Divinópolis, Minas Gerais,4,12772
429,429,997 Milwaukee Trail,São Leopoldo, Rio Grande do Sul,4,12773
430,430,42417 Messerschmidt Pass,Itapevi, São Paulo,4,12774
431,431,841 Burrows Parkway,Araraquara, São Paulo,4,12775
432,432,923 Michigan Parkway,Jacareí, São Paulo,4,12776
433,433,3934 Longview Circle,Dubai City,Dubai,5,12777
434,434,4122 Pawling Parkway,Abu Dhabi City,Abu Dhabi,5,12778
435,435,40 Erie Point,Sharjah City,Sharjah,5,12779
436,436,22960 Redwing Circle,Al Ain,Abu Dhabi,5,12780
437,437,5 Reinke Crossing,Ajman City,Ajman,5,12781
438,438,5317 Randy Plaza,Ras Al Khaimah,Ras Al Khaimah,5,12782
439,439,26726 Dawn Terrace,Fujairah City,Fujairah,5,12783
440,440,6 Kings Place,Umm al-Quwain,Umm al-Quwain,5,12784
441,441,4 Pankratz Junction,Khor Fakkan,Sharjah,5,12785
442,442,3992 Elka Plaza,Kalba,Sharjah,5,12786
443,443,9430 Loomis Crossing,Jebel Ali,Dubai,5,12787
444,444,46 Mcguire Place,Dibba Al-Fujairah,Fujairah,5,12788
445,445,182 Anderson Drive,Madinat Zayed,Abu Dhabi,5,12789
446,446,92693 Hanover Trail,Liwa Oasis,Abu Dhabi,5,12790
447,447,4617 Shoshone Junction,Dhaid,Sharjah,5,12791
448,448,138 Waubesa Drive,Al Quoz,Dubai,5,12792
449,449,6968 Huxley Parkway,Ruwais,Abu Dhabi,5,12793
450,450,80 Comanche Hill,Ghayathi,Abu Dhabi,5,12794
451,451,253 Redwing Park,Ar-Rams,Ras Al Khaimah,5,12795
452,452,16 Del Mar Trail,Dibba Al-Hisn,Sharjah,5,12796
453,453,2 Farmco Plaza,Hatta,Dubai,5,12797
454,454,8272 3rd Plaza,Al Madam,Sharjah,5,12798
455,455,60435 Vera Plaza,Mumbai,Maharashtra,1,12799
456,456,661 Oneill Pass,Delhi,Delhi,1,12800
457,457,64 Canary Place,Bangalore ,Karnataka,1,12801
458,458,487 Monica Road,Hyderabad,Telangana,1,12802
459,459,6928 Meadow Valley Place,Ahmedabad,Gujarat,1,12803
460,460,8590 Mendota Circle,Chennai,Tamil Nadu,1,12804
461,461,12462 Old Shore Park,Kolkata,West Bengal,1,12805
462,462,6 Pankratz Trail,Surat,Gujarat,1,12806
463,463,30 Daystar Center,Pune,Maharashtra,1,12807
464,464,152 Gerald Center,Jaipur,Rajasthan,1,12808
465,465,33 Manufacturers Circle,Lucknow,Uttar Pradesh,1,12809
466,466,467 Rockefeller Crossing,Kanpur,Uttar Pradesh,1,12810
467,467,633 Dottie Alley,Nagpur,Maharashtra,1,12811
468,468,28317 Blaine Road,Indore,Madhya Pradesh,1,12812
469,469,2523 Talisman Court,Thane,Maharashtra,1,12813
470,470,7901 Lakewood Gardens Trail,Bhopal,Madhya Pradesh,1,12814
471,471,67 Anniversary Road,Visakhapatnam,Andhra Pradesh,1,12815
472,472,09111 Packers Junction,Pimpri-Chinchwad,Maharashtra,1,12816
473,473,179 Northfield Junction,Patna,Bihar,1,12817
474,474,53097 Monica Terrace,Vadodara,Gujarat,1,12818
475,475,194 Parkside Pass,New York,New York,2,12819
476,476,70 Melody Lane,Los Angeles,California,2,12820
477,477,46 Grasskamp Junction,Chicago,Illinois,2,12821
478,478,4 Gale Park,Houston,Texas,2,12822
479,479,214 North Crossing,Phoenix,Arizona,2,12823
480,480,30774 Crescent Oaks Parkway,Philadelphia,Pennsylvania,2,12824
481,481,99618 Lighthouse Bay Parkway,San Antonio,Texas,2,12825
482,482,79155 Golf Trail,San Diego,California,2,12826
483,483,81 Del Mar Drive,Dallas,Texas,2,12827
484,484,07 Hintze Park,San Jose,California,2,12828
485,485,216 Burning Wood Point,Austin,Texas,2,12829
486,486,95232 Cordelia Terrace,Jacksonville,Florida,2,12830
487,487,76539 Cardinal Trail,Fort Worth,Texas,2,12831
488,488,45 Mandrake Place,Columbus,Ohio,2,12832
489,489,62948 Sunfield Trail,San Francisco,California,2,12833
490,490,1 Dunning Park,Charlotte,North Carolina,2,12834
491,491,95363 Drewry Drive,Indianapolis,Indiana,2,12835
492,492,80287 Hoepker Road,Toronto,Ontario,3,12836
493,493,63 Moland Terrace,Montreal,Quebec,3,12837
494,494,471 Fisk Street,Calgary,Alberta,3,12838
495,495,914 Vermont Place,Ottawa,Ontario,3,12839
496,496,74 Corry Park,Edmonton,Alberta,3,12840
497,497,3 Talisman Parkway,Mississauga,Ontario,3,12841
498,498,329 Merchant Pass,Winnipeg,Manitoba,3,12842
499,499,925 Manitowish Avenue,Vancouver,British Columbia,3,12843
500,500,33 Sundown Court,Brampton,Ontario,3,12844
501,501,4570 Graedel Point,Hamilton,Ontario,3,12845
502,502,6819 Westerfield Way,Quebec City,Quebec,3,12846
503,503,37012 Fulton Pass,Surrey,British Columbia,3,12847
504,504,7061 Briar Crest Way,Laval,Quebec,3,12848
505,505,808 Amoth Avenue,Halifax,Nova Scotia,3,12849
506,506,1 Village Avenue,London,Ontario,3,12850
507,507,25 Killdeer Hill,Markham,Ontario,3,12851
508,508,2680 Oxford Trail,Vaughan,Ontario,3,12852
509,509,2 Maple Plaza,Gatineau,Quebec,3,12853
510,510,57 Pierstorff Plaza,Saskatoon,Saskatchewan,3,12854
511,511,471 New Castle Plaza,Longueuil,Quebec,3,12855
512,512,7002 Sloan Court,Kitchener,Ontario,3,12856
513,513,077 Kennedy Circle,Burnaby,British Columbia,3,12857
514,514,6 Moland Hill,Windsor,Ontario,3,12858
515,515,67334 Gulseth Lane,Regina,Saskatchewan,3,12859
516,516,46756 Donald Avenue,Richmond,British Columbia,3,12860
517,517,6454 Merry Center,Richmond Hill,Ontario,3,12861
518,518,0145 Blackbird Terrace,Oakville,Ontario,3,12862
519,519,375 Pierstorff Court,Burlington,Ontario,3,12863
520,520,7949 Talisman Alley,Greater Sudbury,Ontario,3,12864
521,521,776 Buena Vista Lane,Sherbrooke,Quebec,3,12865
522,522,45 Melrose Center,Oshawa,Ontario,3,12866
523,523,6296 Tony Circle,Saguenay,Quebec,3,12867
524,524,24729 Holmberg Place,Lévis,Quebec,3,12868
525,525,493 Beilfuss Center,Barrie,Ontario,3,12869
526,526,468 Hudson Plaza,Abbotsford,British Columbia,3,12870
527,527,3309 Old Gate Trail,Coquitlam,British Columbia,3,12871
528,528,5255 Steensland Junction,Trois-Rivières,Quebec,3,12872
529,529,49013 Troy Way,St. Catharines,Ontario,3,12873
530,530,6 Chive Circle,Guelph,Ontario,3,12874
531,531,69 Veith Hill,Cambridge,Ontario,3,12875
532,532,57 Hintze Park,São Paulo, São Paulo,4,12876
533,533,0 Burrows Plaza,Rio de Janeiro, Rio de Janeiro,4,12877
534,534,50400 2nd Crossing,Brasília, Distrito Federal,4,12878
535,535,896 Warbler Way,Salvador, Bahia,4,12879
536,536,72 Nancy Drive,Fortaleza, Ceará,4,12880
537,537,1337 Norway Maple Parkway,Belo Horizonte, Minas Gerais,4,12881
538,538,94743 Raven Road,Manaus, Amazonas,4,12882
539,539,0 Dottie Hill,Curitiba, Paraná,4,12883
540,540,916 Mariners Cove Court,Recife, Pernambuco,4,12884
541,541,49 Hollow Ridge Plaza,Goiânia, Goiás,4,12885
542,542,78655 Crowley Alley,Belém, Pará,4,12886
543,543,8 Monument Hill,Porto Alegre, Rio Grande do Sul,4,12887
544,544,4 Spohn Road,Campinas, São Paulo,4,12888
545,545,30278 Dawn Pass,Guarulhos, São Paulo,4,12889
546,546,89436 Rutledge Point,São Luís, Maranhão,4,12890
547,547,53 Commercial Street,São Gonçalo, Rio de Janeiro,4,12891
548,548,013 Gale Park,Maceió, Alagoas,4,12892
549,549,6941 Prairieview Junction,Duque de Caxias, Rio de Janeiro,4,12893
550,550,0963 Dahle Road,Campo Grande, Mato Grosso do Sul,4,12894
551,551,61974 Oneill Park,Natal, Rio Grande do Norte,4,12895
552,552,0497 Alpine Park,Teresina, Piauí,4,12896
553,553,0 Towne Street,São Bernardo do Campo, São Paulo,4,12897
554,554,22919 Mandrake Terrace,Nova Iguaçu, Rio de Janeiro,4,12898
555,555,8637 Longview Place,João Pessoa, Paraíba,4,12899
556,556,6344 North Crossing,Santo André, São Paulo,4,12900
557,557,65941 Debra Place,São José dos Campos, São Paulo,4,12901
558,558,3 Carpenter Circle,Jaboatão dos Guararapes, Pernambuco,4,12902
559,559,43 Thompson Parkway,Osasco, São Paulo,4,12903
560,560,1496 Blue Bill Park Way,Ribeirão Preto, São Paulo,4,12904
561,561,52711 Meadow Vale Circle,Uberlândia, Minas Gerais,4,12905
562,562,5813 Rockefeller Pass,Sorocaba, São Paulo,4,12906
563,563,69358 Buhler Lane,Contagem, Minas Gerais,4,12907
564,564,4656 Dakota Crossing,Aracaju, Sergipe,4,12908
565,565,41952 Ilene Parkway,Feira de Santana, Bahia,4,12909
566,566,2 Sachs Alley,Cuiabá, Mato Grosso,4,12910
567,567,0091 Division Circle,Joinville, Santa Catarina,4,12911
568,568,4 Dottie Circle,Aparecida de Goiânia, Goiás,4,12912
569,569,8 Sheridan Pass,Juiz de Fora, Minas Gerais,4,12913
570,570,1 Londonderry Hill,Londrina, Paraná,4,12914
571,571,6250 Northwestern Hill,Ananindeua, Pará,4,12915
572,572,0 Golden Leaf Way,Porto Velho, Rondônia,4,12916
573,573,570 Arrowood Point,Niterói, Rio de Janeiro,4,12917
574,574,2834 Johnson Junction,Belford Roxo, Rio de Janeiro,4,12918
575,575,54 Lien Junction,Serra, Espírito Santo,4,12919
576,576,178 Buhler Crossing,Caxias do Sul, Rio Grande do Sul,4,12920
577,577,438 Bashford Drive,Campos dos Goytacazes, Rio de Janeiro,4,12921
578,578,20 Derek Center,Macapá, Amapá,4,12922
579,579,83154 Bayside Court,Florianópolis, Santa Catarina,4,12923
580,580,4 Boyd Road,Vila Velha, Espírito Santo,4,12924
581,581,7584 Roxbury Lane,São João de Meriti, Rio de Janeiro,4,12925
582,582,033 Portage Pass,Mauá, São Paulo,4,12926
583,583,6263 Pennsylvania Place,São José do Rio Preto, São Paulo,4,12927
584,584,72 Thierer Drive,Mogi das Cruzes, São Paulo,4,12928
585,585,64 Cambridge Court,Santos, São Paulo,4,12929
586,586,1993 Forest Dale Plaza,Betim, Minas Gerais,4,12930
587,587,298 Mariners Cove Pass,Diadema, São Paulo,4,12931
588,588,8186 Swallow Pass,Maringá, Paraná,4,12932
589,589,26 Golf Pass,Jundiaí, São Paulo,4,12933
590,590,7 Grover Parkway,Campina Grande, Paraíba,4,12934
591,591,9407 Gale Crossing,Montes Claros, Minas Gerais,4,12935
592,592,9 Barby Avenue,Rio Branco, Acre,4,12936
593,593,432 Ludington Center,Piracicaba, São Paulo,4,12937
594,594,1 Amoth Lane,Carapicuíba, São Paulo,4,12938
595,595,92842 Elka Circle,Olinda, Pernambuco,4,12939
596,596,4758 Fieldstone Pass,Anápolis, Goiás,4,12940
597,597,29914 Kinsman Alley,Cariacica, Espírito Santo,4,12941
598,598,7 Rieder Park,Boa Vista, Roraima,4,12942
599,599,26325 Sutteridge Avenue,Bauru, São Paulo,4,12943
600,600,936 Trailsway Way,Itaquaquecetuba, São Paulo,4,12944
601,601,6 Mockingbird Street,Caucaia, Ceará,4,12945
602,602,72182 Sundown Place,São Vicente, São Paulo,4,12946
603,603,7 Bultman Place,Vitória, Espírito Santo,4,12947
604,604,85119 Acker Alley,Caruaru, Pernambuco,4,12948
605,605,282 Carioca Avenue,Blumenau, Santa Catarina,4,12949
606,606,90904 Upham Way,Franca, São Paulo,4,12950
607,607,535 Crest Line Court,Ponta Grossa, Paraná,4,12951
608,608,5225 Muir Place,Canoas, Rio Grande do Sul,4,12952
609,609,08806 Dunning Circle,Petrolina, Pernambuco,4,12953
610,610,105 Oak Junction,Pelotas, Rio Grande do Sul,4,12954
611,611,28 Eagan Court,Vitória da Conquista, Bahia,4,12955
612,612,0911 Erie Park,Ribeirão das Neves, Minas Gerais,4,12956
613,613,34317 Carberry Street,Uberaba, Minas Gerais,4,12957
614,614,6426 Bobwhite Drive,Paulista, Pernambuco,4,12958
615,615,03 Oak Valley Drive,Cascavel, Paraná,4,12959
616,616,67 Eagan Way,Praia Grande, São Paulo,4,12960
617,617,56 Hayes Avenue,Guarujá, São Paulo,4,12961
618,618,98 Golf Course Road,São José dos Pinhais, Paraná,4,12962
619,619,22 Meadow Valley Park,Taubaté, São Paulo,4,12963
620,620,572 Straubel Place,Petrópolis, Rio de Janeiro,4,12964
621,621,2020 Straubel Trail,Limeira, São Paulo,4,12965
622,622,092 Gerald Court,Santarém, Pará,4,12966
623,623,5 Shoshone Parkway,Suzano, São Paulo,4,12967
624,624,199 Continental Road,Mossoró, Rio Grande do Norte,4,12968
625,625,19 Schurz Alley,Camaçari, Bahia,4,12969
626,626,3 Center Hill,Palmas, Tocantins,4,12970
627,627,2430 Cody Street,Taboão da Serra, São Paulo,4,12971
628,628,2 Waxwing Park,Várzea Grande, Mato Grosso,4,12972
629,629,55 Bunting Plaza,Santa Maria, Rio Grande do Sul,4,12973
630,630,516 Emmet Avenue,Gravataí, Rio Grande do Sul,4,12974
631,631,0492 International Place,Governador Valadares, Minas Gerais,4,12975
632,632,88118 Fairview Alley,Sumaré, São Paulo,4,12976
633,633,70 Haas Park,Marabá, Pará,4,12977
634,634,8 Dawn Road,Volta Redonda, Rio de Janeiro,4,12978
635,635,858 Westport Parkway,Juazeiro do Norte, Ceará,4,12979
636,636,27593 Eliot Point,Barueri, São Paulo,4,12980
637,637,64 Mariners Cove Avenue,Embu das Artes, São Paulo,4,12981
638,638,6 Cardinal Drive,Ipatinga, Minas Gerais,4,12982
639,639,22709 Sunnyside Circle,Foz do Iguaçu, Paraná,4,12983
640,640,4956 Dexter Way,Imperatriz, Maranhão,4,12984
641,641,3 Bartelt Plaza,Parnamirim, Rio Grande do Norte,4,12985
642,642,4 Hoffman Terrace,Viamão, Rio Grande do Sul,4,12986
643,643,1114 Mosinee Pass,Macaé, Rio de Janeiro,4,12987
644,644,17179 Carioca Terrace,São Carlos, São Paulo,4,12988
645,645,61445 Corben Center,Indaiatuba, São Paulo,4,12989
646,646,8075 Reindahl Parkway,Novo Hamburgo, Rio Grande do Sul,4,12990
647,647,66 Everett Court,Cotia, São Paulo,4,12991
648,648,984 Barnett Park,Magé, Rio de Janeiro,4,12992
649,649,92781 Kinsman Plaza,São José, Santa Catarina,4,12993
650,650,1977 Ridgeway Road,Colombo, Paraná,4,12994
651,651,829 Elmside Avenue,Itaboraí, Rio de Janeiro,4,12995
652,652,0273 Eagan Point,Sete Lagoas, Minas Gerais,4,12996
653,653,057 Roxbury Avenue,Marília, São Paulo,4,12997
654,654,683 Armistice Way,Americana, São Paulo,4,12998
655,655,1 Sherman Center,Divinópolis, Minas Gerais,4,12999
656,656,14043 Karstens Avenue,São Leopoldo, Rio Grande do Sul,4,13000
657,657,9 Westerfield Avenue,Itapevi, São Paulo,4,13001
658,658,65072 David Avenue,Araraquara, São Paulo,4,13002
659,659,150 Columbus Center,Jacareí, São Paulo,4,13003
660,660,42230 Brown Park,Dubai City,Dubai,5,13004
661,661,92249 Burrows Circle,Abu Dhabi City,Abu Dhabi,5,13005
662,662,83 Manitowish Way,Sharjah City,Sharjah,5,13006
663,663,76 Cherokee Road,Al Ain,Abu Dhabi,5,13007
664,664,41832 Vermont Drive,Ajman City,Ajman,5,13008
665,665,56 Schmedeman Street,Ras Al Khaimah,Ras Al Khaimah,5,13009
666,666,2335 Northport Lane,Fujairah City,Fujairah,5,13010
667,667,483 Twin Pines Parkway,Umm al-Quwain,Umm al-Quwain,5,13011
668,668,18 Anniversary Place,Khor Fakkan,Sharjah,5,13012
669,669,9 Canary Hill,Kalba,Sharjah,5,13013
670,670,572 Miller Trail,Jebel Ali,Dubai,5,13014
671,671,77 Glendale Junction,Dibba Al-Fujairah,Fujairah,5,13015
672,672,190 Buell Crossing,Madinat Zayed,Abu Dhabi,5,13016
673,673,4342 Darwin Alley,Liwa Oasis,Abu Dhabi,5,13017
674,674,6123 Surrey Trail,Dhaid,Sharjah,5,13018
675,675,4 Southridge Plaza,Al Quoz,Dubai,5,13019
676,676,209 Oakridge Crossing,Ruwais,Abu Dhabi,5,13020
677,677,36 Garrison Way,Ghayathi,Abu Dhabi,5,13021
678,678,4 Bartillon Parkway,Ar-Rams,Ras Al Khaimah,5,13022
679,679,8394 Kipling Street,Dibba Al-Hisn,Sharjah,5,13023
680,680,20317 Roxbury Place,Hatta,Dubai,5,13024
681,681,438 Welch Parkway,Al Madam,Sharjah,5,13025
682,682,2 Cascade Court,Mumbai,Maharashtra,1,13026
683,683,8519 Mallard Parkway,Delhi,Delhi,1,13027
684,684,894 5th Way,Bangalore ,Karnataka,1,13028
685,685,09864 Larry Street,Hyderabad,Telangana,1,13029
686,686,0389 Dorton Trail,Ahmedabad,Gujarat,1,13030
687,687,8 Westerfield Hill,Chennai,Tamil Nadu,1,13031
688,688,393 Pierstorff Way,Kolkata,West Bengal,1,13032
689,689,5 4th Point,Surat,Gujarat,1,13033
690,690,96884 3rd Hill,Pune,Maharashtra,1,13034
691,691,141 Pond Crossing,Jaipur,Rajasthan,1,13035
692,692,01953 Reinke Center,Lucknow,Uttar Pradesh,1,13036
693,693,10499 Waywood Avenue,Kanpur,Uttar Pradesh,1,13037
694,694,79022 Hovde Avenue,Nagpur,Maharashtra,1,13038
695,695,6 Carberry Drive,Indore,Madhya Pradesh,1,13039
696,696,5 Golf View Plaza,Thane,Maharashtra,1,13040
697,697,8578 Northridge Terrace,Bhopal,Madhya Pradesh,1,13041
698,698,2 John Wall Park,Visakhapatnam,Andhra Pradesh,1,13042
699,699,377 Eagle Crest Way,Pimpri-Chinchwad,Maharashtra,1,13043
700,700,490 Chive Center,Patna,Bihar,1,13044
701,701,183 Hazelcrest Avenue,Vadodara,Gujarat,1,13045
702,702,73759 Mariners Cove Court,New York,New York,2,13046
703,703,15188 Marquette Road,Los Angeles,California,2,13047
704,704,8 Montana Trail,Chicago,Illinois,2,13048
705,705,8 Oak Valley Circle,Houston,Texas,2,13049
706,706,736 Steensland Plaza,Phoenix,Arizona,2,13050
707,707,2 Towne Lane,Philadelphia,Pennsylvania,2,13051
708,708,02324 Scoville Junction,San Antonio,Texas,2,13052
709,709,3 Lien Junction,San Diego,California,2,13053
710,710,6252 Dryden Center,Dallas,Texas,2,13054
711,711,6 Rutledge Parkway,San Jose,California,2,13055
712,712,03 Saint Paul Circle,Austin,Texas,2,13056
713,713,754 Merrick Street,Jacksonville,Florida,2,13057
714,714,6785 Loeprich Park,Fort Worth,Texas,2,13058
715,715,4046 Maple Wood Alley,Columbus,Ohio,2,13059
716,716,84 Drewry Circle,San Francisco,California,2,13060
717,717,758 Toban Circle,Charlotte,North Carolina,2,13061
718,718,520 Debs Point,Indianapolis,Indiana,2,13062
719,719,3332 Graedel Alley,Toronto,Ontario,3,13063
720,720,858 Bonner Drive,Montreal,Quebec,3,13064
721,721,258 Pankratz Drive,Calgary,Alberta,3,13065
722,722,23264 Sheridan Center,Ottawa,Ontario,3,13066
723,723,6905 Banding Terrace,Edmonton,Alberta,3,13067
724,724,3606 Manley Road,Mississauga,Ontario,3,13068
725,725,26 Prairie Rose Road,Winnipeg,Manitoba,3,13069
726,726,81 Pankratz Hill,Vancouver,British Columbia,3,13070
727,727,09 Muir Park,Brampton,Ontario,3,13071
728,728,38209 Scott Court,Hamilton,Ontario,3,13072
729,729,17 Lighthouse Bay Center,Quebec City,Quebec,3,13073
730,730,718 Talisman Avenue,Surrey,British Columbia,3,13074
731,731,67870 Bashford Lane,Laval,Quebec,3,13075
732,732,0 Blaine Pass,Halifax,Nova Scotia,3,13076
733,733,0 Cody Road,London,Ontario,3,13077
734,734,48 Dakota Trail,Markham,Ontario,3,13078
735,735,881 Nevada Trail,Vaughan,Ontario,3,13079
736,736,747 2nd Place,Gatineau,Quebec,3,13080
737,737,4365 Towne Junction,Saskatoon,Saskatchewan,3,13081
738,738,030 Kings Parkway,Longueuil,Quebec,3,13082
739,739,8 Fuller Crossing,Kitchener,Ontario,3,13083
740,740,57693 Fulton Road,Burnaby,British Columbia,3,13084
741,741,43 Debra Point,Windsor,Ontario,3,13085
742,742,6 Colorado Crossing,Regina,Saskatchewan,3,13086
743,743,8392 Monument Trail,Richmond,British Columbia,3,13087
744,744,462 Oneill Junction,Richmond Hill,Ontario,3,13088
745,745,0 Walton Way,Oakville,Ontario,3,13089
746,746,68 Eggendart Avenue,Burlington,Ontario,3,13090
747,747,87153 Arizona Street,Greater Sudbury,Ontario,3,13091
748,748,220 Londonderry Drive,Sherbrooke,Quebec,3,13092
749,749,849 Parkside Park,Oshawa,Ontario,3,13093
750,750,3 Raven Road,Saguenay,Quebec,3,13094
751,751,29325 Bunting Park,Lévis,Quebec,3,13095
752,752,04 Loomis Drive,Barrie,Ontario,3,13096
753,753,5029 Northport Street,Abbotsford,British Columbia,3,13097
754,754,59 High Crossing Parkway,Coquitlam,British Columbia,3,13098
755,755,82 Reindahl Point,Trois-Rivières,Quebec,3,13099
756,756,86 Kedzie Place,St. Catharines,Ontario,3,13100
757,757,00122 Hanover Court,Guelph,Ontario,3,13101
758,758,31 Jenna Junction,Cambridge,Ontario,3,13102
759,759,8715 Manitowish Terrace,São Paulo, São Paulo,4,13103
760,760,8520 Montana Avenue,Rio de Janeiro, Rio de Janeiro,4,13104
761,761,5 Heath Court,Brasília, Distrito Federal,4,13105
762,762,4926 Loomis Avenue,Salvador, Bahia,4,13106
763,763,7 Bellgrove Way,Fortaleza, Ceará,4,13107
764,764,82173 Crest Line Crossing,Belo Horizonte, Minas Gerais,4,13108
765,765,96836 John Wall Alley,Manaus, Amazonas,4,13109
766,766,7613 Blaine Parkway,Curitiba, Paraná,4,13110
767,767,747 Eggendart Court,Recife, Pernambuco,4,13111
768,768,1 Colorado Plaza,Goiânia, Goiás,4,13112
769,769,248 Eliot Center,Belém, Pará,4,13113
770,770,3796 Pepper Wood Terrace,Porto Alegre, Rio Grande do Sul,4,13114
771,771,9 Mosinee Point,Campinas, São Paulo,4,13115
772,772,43099 Dayton Center,Guarulhos, São Paulo,4,13116
773,773,274 Bobwhite Crossing,São Luís, Maranhão,4,13117
774,774,8459 Ryan Lane,São Gonçalo, Rio de Janeiro,4,13118
775,775,9 Lighthouse Bay Point,Maceió, Alagoas,4,13119
776,776,671 Kenwood Place,Duque de Caxias, Rio de Janeiro,4,13120
777,777,5 American Ash Place,Campo Grande, Mato Grosso do Sul,4,13121
778,778,34 Amoth Alley,Natal, Rio Grande do Norte,4,13122
779,779,842 Gateway Terrace,Teresina, Piauí,4,13123
780,780,0953 Debra Pass,São Bernardo do Campo, São Paulo,4,13124
781,781,93 Namekagon Trail,Nova Iguaçu, Rio de Janeiro,4,13125
782,782,76 Goodland Junction,João Pessoa, Paraíba,4,13126
783,783,94078 Hagan Parkway,Santo André, São Paulo,4,13127
784,784,70 Ridgeview Crossing,São José dos Campos, São Paulo,4,13128
785,785,1 Ryan Way,Jaboatão dos Guararapes, Pernambuco,4,13129
786,786,922 Ridgeview Park,Osasco, São Paulo,4,13130
787,787,62 1st Lane,Ribeirão Preto, São Paulo,4,13131
788,788,25 Texas Lane,Uberlândia, Minas Gerais,4,13132
789,789,32072 Graedel Court,Sorocaba, São Paulo,4,13133
790,790,71984 Melby Drive,Contagem, Minas Gerais,4,13134
791,791,161 Farragut Parkway,Aracaju, Sergipe,4,13135
792,792,06270 South Street,Feira de Santana, Bahia,4,13136
793,793,7 Hoard Circle,Cuiabá, Mato Grosso,4,13137
794,794,904 Maple Terrace,Joinville, Santa Catarina,4,13138
795,795,2224 Ramsey Crossing,Aparecida de Goiânia, Goiás,4,13139
796,796,12979 Riverside Crossing,Juiz de Fora, Minas Gerais,4,13140
797,797,450 Rowland Avenue,Londrina, Paraná,4,13141
798,798,2 Upham Drive,Ananindeua, Pará,4,13142
799,799,26707 Quincy Point,Porto Velho, Rondônia,4,13143
800,800,75 Marquette Hill,Niterói, Rio de Janeiro,4,13144
801,801,9 Londonderry Pass,Belford Roxo, Rio de Janeiro,4,13145
802,802,09 Rieder Center,Serra, Espírito Santo,4,13146
803,803,0 Larry Trail,Caxias do Sul, Rio Grande do Sul,4,13147
804,804,96 Glendale Junction,Campos dos Goytacazes, Rio de Janeiro,4,13148
805,805,6348 Di Loreto Parkway,Macapá, Amapá,4,13149
806,806,8793 Daystar Way,Florianópolis, Santa Catarina,4,13150
807,807,6 Clyde Gallagher Point,Vila Velha, Espírito Santo,4,13151
808,808,447 Bashford Parkway,São João de Meriti, Rio de Janeiro,4,13152
809,809,874 Farwell Avenue,Mauá, São Paulo,4,13153
810,810,0259 Hoffman Trail,São José do Rio Preto, São Paulo,4,13154
811,811,4315 American Ash Junction,Mogi das Cruzes, São Paulo,4,13155
812,812,45 Pepper Wood Pass,Santos, São Paulo,4,13156
813,813,61682 Elka Street,Betim, Minas Gerais,4,13157
814,814,102 Oxford Plaza,Diadema, São Paulo,4,13158
815,815,5694 Homewood Hill,Maringá, Paraná,4,13159
816,816,00 Kensington Circle,Jundiaí, São Paulo,4,13160
817,817,4703 Susan Junction,Campina Grande, Paraíba,4,13161
818,818,21835 Menomonie Center,Montes Claros, Minas Gerais,4,13162
819,819,397 Valley Edge Court,Rio Branco, Acre,4,13163
820,820,33909 Banding Point,Piracicaba, São Paulo,4,13164
821,821,81670 Elgar Road,Carapicuíba, São Paulo,4,13165
822,822,7199 Bashford Hill,Olinda, Pernambuco,4,13166
823,823,1 Hoepker Street,Anápolis, Goiás,4,13167
824,824,90268 Del Mar Center,Cariacica, Espírito Santo,4,13168
825,825,29 Briar Crest Road,Boa Vista, Roraima,4,13169
826,826,48026 Bluestem Street,Bauru, São Paulo,4,13170
827,827,36 Continental Pass,Itaquaquecetuba, São Paulo,4,13171
828,828,452 Melby Junction,Caucaia, Ceará,4,13172
829,829,4 Scott Street,São Vicente, São Paulo,4,13173
830,830,53 Talisman Crossing,Vitória, Espírito Santo,4,13174
831,831,1 Atwood Road,Caruaru, Pernambuco,4,13175
832,832,52969 Columbus Way,Blumenau, Santa Catarina,4,13176
833,833,028 Sycamore Place,Franca, São Paulo,4,13177
834,834,5969 Mariners Cove Plaza,Ponta Grossa, Paraná,4,13178
835,835,719 Monterey Road,Canoas, Rio Grande do Sul,4,13179
836,836,0 Onsgard Plaza,Petrolina, Pernambuco,4,13180
837,837,491 Springs Parkway,Pelotas, Rio Grande do Sul,4,13181
838,838,3 Dryden Lane,Vitória da Conquista, Bahia,4,13182
839,839,86314 Reinke Court,Ribeirão das Neves, Minas Gerais,4,13183
840,840,50523 Iowa Place,Uberaba, Minas Gerais,4,13184
841,841,8 Parkside Way,Paulista, Pernambuco,4,13185
842,842,2072 Esker Junction,Cascavel, Paraná,4,13186
843,843,12 Dexter Hill,Praia Grande, São Paulo,4,13187
844,844,1 Lighthouse Bay Avenue,Guarujá, São Paulo,4,13188
845,845,95323 Spenser Junction,São José dos Pinhais, Paraná,4,13189
846,846,91272 Waywood Way,Taubaté, São Paulo,4,13190
847,847,79862 Pepper Wood Crossing,Petrópolis, Rio de Janeiro,4,13191
848,848,62 Montana Hill,Limeira, São Paulo,4,13192
849,849,91139 Pierstorff Drive,Santarém, Pará,4,13193
850,850,9 Fairview Parkway,Suzano, São Paulo,4,13194
851,851,13 Morningstar Circle,Mossoró, Rio Grande do Norte,4,13195
852,852,61 Anniversary Road,Camaçari, Bahia,4,13196
853,853,27570 Jackson Plaza,Palmas, Tocantins,4,13197
854,854,7061 Eastlawn Plaza,Taboão da Serra, São Paulo,4,13198
855,855,0 Morningstar Court,Várzea Grande, Mato Grosso,4,13199
856,856,49 Fordem Junction,Santa Maria, Rio Grande do Sul,4,13200
857,857,39 Larry Circle,Gravataí, Rio Grande do Sul,4,13201
858,858,77 Judy Place,Governador Valadares, Minas Gerais,4,13202
859,859,397 Gale Terrace,Sumaré, São Paulo,4,13203
860,860,16550 Fair Oaks Place,Marabá, Pará,4,13204
861,861,7 Hanson Terrace,Volta Redonda, Rio de Janeiro,4,13205
862,862,9 Bay Pass,Juazeiro do Norte, Ceará,4,13206
863,863,499 Bellgrove Alley,Barueri, São Paulo,4,13207
864,864,97636 Division Plaza,Embu das Artes, São Paulo,4,13208
865,865,031 Jay Hill,Ipatinga, Minas Gerais,4,13209
866,866,180 Mccormick Drive,Foz do Iguaçu, Paraná,4,13210
867,867,013 Norway Maple Lane,Imperatriz, Maranhão,4,13211
868,868,4578 Iowa Court,Parnamirim, Rio Grande do Norte,4,13212
869,869,6251 Wayridge Crossing,Viamão, Rio Grande do Sul,4,13213
870,870,6706 Golf Course Way,Macaé, Rio de Janeiro,4,13214
871,871,4 Summit Place,São Carlos, São Paulo,4,13215
872,872,07 Eagle Crest Avenue,Indaiatuba, São Paulo,4,13216
873,873,3574 Saint Paul Road,Novo Hamburgo, Rio Grande do Sul,4,13217
874,874,8383 Rigney Way,Cotia, São Paulo,4,13218
875,875,34013 American Center,Magé, Rio de Janeiro,4,13219
876,876,9 Northridge Parkway,São José, Santa Catarina,4,13220
877,877,03 Petterle Road,Colombo, Paraná,4,13221
878,878,0209 Raven Terrace,Itaboraí, Rio de Janeiro,4,13222
879,879,1313 Colorado Street,Sete Lagoas, Minas Gerais,4,13223
880,880,57 Shopko Park,Marília, São Paulo,4,13224
881,881,17516 Hintze Street,Americana, São Paulo,4,13225
882,882,471 Norway Maple Court,Divinópolis, Minas Gerais,4,13226
883,883,5 Nelson Parkway,São Leopoldo, Rio Grande do Sul,4,13227
884,884,6 Starling Plaza,Itapevi, São Paulo,4,13228
885,885,3 6th Point,Araraquara, São Paulo,4,13229
886,886,0476 Vera Park,Jacareí, São Paulo,4,13230
887,887,12 Amoth Street,Dubai City,Dubai,5,13231
888,888,430 Bluestem Crossing,Abu Dhabi City,Abu Dhabi,5,13232
889,889,55 Upham Center,Sharjah City,Sharjah,5,13233
890,890,14 Fremont Pass,Al Ain,Abu Dhabi,5,13234
891,891,2 3rd Place,Ajman City,Ajman,5,13235
892,892,09 Dexter Center,Ras Al Khaimah,Ras Al Khaimah,5,13236
893,893,9 Mayer Circle,Fujairah City,Fujairah,5,13237
894,894,6 Coolidge Terrace,Umm al-Quwain,Umm al-Quwain,5,13238
895,895,7043 Red Cloud Trail,Khor Fakkan,Sharjah,5,13239
896,896,795 Magdeline Crossing,Kalba,Sharjah,5,13240
897,897,5245 Manley Place,Jebel Ali,Dubai,5,13241
898,898,346 Mallory Lane,Dibba Al-Fujairah,Fujairah,5,13242
899,899,5556 Park Meadow Point,Madinat Zayed,Abu Dhabi,5,13243
900,900,8514 Sullivan Park,Liwa Oasis,Abu Dhabi,5,13244
901,901,8475 Homewood Circle,Dhaid,Sharjah,5,13245
902,902,6960 Schiller Way,Al Quoz,Dubai,5,13246
903,903,7997 Prairie Rose Way,Ruwais,Abu Dhabi,5,13247
904,904,27710 Upham Parkway,Ghayathi,Abu Dhabi,5,13248
905,905,6979 Maple Wood Junction,Ar-Rams,Ras Al Khaimah,5,13249
906,906,0 Banding Park,Dibba Al-Hisn,Sharjah,5,13250
907,907,817 Harper Way,Hatta,Dubai,5,13251
908,908,3522 Carberry Court,Al Madam,Sharjah,5,13252
909,909,09 Coolidge Park,Mumbai,Maharashtra,1,13253
910,910,7 Monument Place,Delhi,Delhi,1,13254
911,911,57 Atwood Circle,Bangalore ,Karnataka,1,13255
912,912,58 Towne Junction,Hyderabad,Telangana,1,13256
913,913,66047 Kennedy Center,Ahmedabad,Gujarat,1,13257
914,914,23 Lukken Court,Chennai,Tamil Nadu,1,13258
915,915,0296 Nevada Trail,Kolkata,West Bengal,1,13259
916,916,988 Scofield Alley,Surat,Gujarat,1,13260
917,917,24 Delaware Court,Pune,Maharashtra,1,13261
918,918,7274 Dayton Way,Jaipur,Rajasthan,1,13262
919,919,41 Ryan Circle,Lucknow,Uttar Pradesh,1,13263
920,920,3 Sachs Center,Kanpur,Uttar Pradesh,1,13264
921,921,9 Ronald Regan Crossing,Nagpur,Maharashtra,1,13265
922,922,61205 Stuart Way,Indore,Madhya Pradesh,1,13266
923,923,8328 Grasskamp Road,Thane,Maharashtra,1,13267
924,924,2895 Myrtle Plaza,Bhopal,Madhya Pradesh,1,13268
925,925,77 Sloan Pass,Visakhapatnam,Andhra Pradesh,1,13269
926,926,181 Glendale Way,Pimpri-Chinchwad,Maharashtra,1,13270
927,927,27911 Warrior Trail,Patna,Bihar,1,13271
928,928,68 Banding Alley,Vadodara,Gujarat,1,13272
929,929,5 Blaine Junction,New York,New York,2,13273
930,930,0889 Claremont Lane,Los Angeles,California,2,13274
931,931,9 Bobwhite Pass,Chicago,Illinois,2,13275
932,932,09524 Elka Place,Houston,Texas,2,13276
933,933,94551 Ridgeway Center,Phoenix,Arizona,2,13277
934,934,93033 Warrior Street,Philadelphia,Pennsylvania,2,13278
935,935,655 Corry Avenue,San Antonio,Texas,2,13279
936,936,7 Buell Court,San Diego,California,2,13280
937,937,162 Mcbride Park,Dallas,Texas,2,13281
938,938,51 Maple Wood Junction,San Jose,California,2,13282
939,939,26 Heath Junction,Austin,Texas,2,13283
940,940,167 Scott Park,Jacksonville,Florida,2,13284
941,941,4 Sachtjen Street,Fort Worth,Texas,2,13285
942,942,953 Golf Crossing,Columbus,Ohio,2,13286
943,943,6 Hintze Parkway,San Francisco,California,2,13287
944,944,280 Almo Alley,Charlotte,North Carolina,2,13288
945,945,79 Redwing Street,Indianapolis,Indiana,2,13289
946,946,5 Corscot Point,Toronto,Ontario,3,13290
947,947,1 Bunting Terrace,Montreal,Quebec,3,13291
948,948,6 Shoshone Circle,Calgary,Alberta,3,13292
949,949,330 Graceland Way,Ottawa,Ontario,3,13293
950,950,07 Stang Plaza,Edmonton,Alberta,3,13294
951,951,3011 Mitchell Court,Mississauga,Ontario,3,13295
952,952,83923 Union Street,Winnipeg,Manitoba,3,13296
953,953,68 Del Sol Crossing,Vancouver,British Columbia,3,13297
954,954,2352 Hanover Circle,Brampton,Ontario,3,13298
955,955,5 Barnett Park,Hamilton,Ontario,3,13299
956,956,34 South Plaza,Quebec City,Quebec,3,13300
957,957,88012 Kropf Center,Surrey,British Columbia,3,13301
958,958,85616 Esch Drive,Laval,Quebec,3,13302
959,959,84765 Eliot Junction,Halifax,Nova Scotia,3,13303
960,960,19 Riverside Road,London,Ontario,3,13304
961,961,1199 Kipling Alley,Markham,Ontario,3,13305
962,962,646 Tennyson Trail,Vaughan,Ontario,3,13306
963,963,275 Hermina Plaza,Gatineau,Quebec,3,13307
964,964,9250 Dahle Trail,Saskatoon,Saskatchewan,3,13308
965,965,28176 Hoard Place,Longueuil,Quebec,3,13309
966,966,94624 Northwestern Circle,Kitchener,Ontario,3,13310
967,967,86661 Erie Terrace,Burnaby,British Columbia,3,13311
968,968,885 Veith Terrace,Windsor,Ontario,3,13312
969,969,0 Quincy Trail,Regina,Saskatchewan,3,13313
970,970,400 Sundown Alley,Richmond,British Columbia,3,13314
971,971,3 Mariners Cove Terrace,Richmond Hill,Ontario,3,13315
972,972,092 Montana Street,Oakville,Ontario,3,13316
973,973,27375 Grasskamp Street,Burlington,Ontario,3,13317
974,974,3534 Bultman Alley,Greater Sudbury,Ontario,3,13318
975,975,01 Sunbrook Pass,Sherbrooke,Quebec,3,13319
976,976,539 Golden Leaf Place,Oshawa,Ontario,3,13320
977,977,7579 Macpherson Alley,Saguenay,Quebec,3,13321
978,978,9 Schlimgen Crossing,Lévis,Quebec,3,13322
979,979,64689 Dakota Lane,Barrie,Ontario,3,13323
980,980,28450 Crownhardt Lane,Abbotsford,British Columbia,3,13324
981,981,467 Mariners Cove Drive,Coquitlam,British Columbia,3,13325
982,982,14368 Namekagon Plaza,Trois-Rivières,Quebec,3,13326
983,983,8277 Muir Way,St. Catharines,Ontario,3,13327
984,984,8 Knutson Avenue,Guelph,Ontario,3,13328
985,985,1 Stoughton Court,Cambridge,Ontario,3,13329
986,986,67 Morrow Place,São Paulo, São Paulo,4,13330
987,987,8448 Everett Hill,Rio de Janeiro, Rio de Janeiro,4,13331
988,988,82 Glacier Hill Drive,Brasília, Distrito Federal,4,13332
989,989,0 Loeprich Court,Salvador, Bahia,4,13333
990,990,15 Erie Way,Fortaleza, Ceará,4,13334
991,991,8826 Messerschmidt Trail,Belo Horizonte, Minas Gerais,4,13335
992,992,70923 Stoughton Trail,Manaus, Amazonas,4,13336
993,993,221 Granby Terrace,Curitiba, Paraná,4,13337
994,994,72792 Saint Paul Trail,Recife, Pernambuco,4,13338
995,995,21929 Moose Avenue,Goiânia, Goiás,4,13339
996,996,009 Londonderry Place,Belém, Pará,4,13340
997,997,4111 Atwood Avenue,Porto Alegre, Rio Grande do Sul,4,13341
998,998,48494 Holy Cross Hill,Campinas, São Paulo,4,13342
999,999,35463 Oak Trail,Guarulhos, São Paulo,4,13343
1000,1000,8 Pankratz Court,São Luís, Maranhão,4,13344
,,,,,,
,,,,,,
,,,,,,
,,,,,,
,,,,,,
,,,,,,
,,,,,,
,,,,,,
,,,,,,
,,,,,,
,,,,,,
,,,,,,
,,,,,,
,,,,,,
,,,,,,
,,,,,,
,,,,,,
,,,,,,
,,,,,,
,,,,,,
,,,,,,
,,,,,,
,,,,,,
,,,,,,
,,,,,,
,,,,,,
,,,,,,
,,,,,,
,,,,,,
,,,,,,
,,,,,,
,,,,,,
,,,,,,
,,,,,,
,,,,,,
,,,,,,
,,,,,,
,,,,,,
,,,,,,
,,,,,,
,,,,,,
,,,,,,
,,,,,,
,,,,,,
,,,,,,
,,,,,,
,,,,,,
,,,,,,
,,,,,,
,,,,,,
,,,,,,
,,,,,,
,,,,,,
,,,,,,
,,,,,,
,,,,,,
,,,,,,
,,,,,,
,,,,,,
,,,,,,
,,,,,,
,,,,,,
,,,,,,
,,,,,,
,,,,,,
,,,,,,
,,,,,,
,,,,,,
,,,,,,
,,,,,,
,,,,,,
,,,,,,
,,,,,,
,,,,,,
,,,,,,
,,,,,,
,,,,,,
,,,,,,
,,,,,,
,,,,,,
,,,,,,
,,,,,,
,,,,,,
,,,,,,
,,,,,,
,,,,,,
,,,,,,
,,,,,,
,,,,,,
,,,,,,
,,,,,,
,,,,,,
,,,,,,
,,,,,,
,,,,,,
,,,,,,
,,,,,,
,,,,,,
,,,,,,
,,,,,,
,,,,,,
,,,,,,
,,,,,,
,,,,,,
,,,,,,
,,,,,,
,,,,,,
,,,,,,
,,,,,,
,,,,,,
,,,,,,
,,,,,,
,,,,,,
,,,,,,
,,,,,,
,,,,,,
,,,,,,
,,,,,,
,,,,,,
,,,,,,
,,,,,,
,,,,,,
,,,,,,
,,,,,,
,,,,,,
,,,,,,
,,,,,,
,,,,,,
,,,,,,
,,,,,,
,,,,,,
,,,,,,
,,,,,,
,,,,,,
,,,,,,
